BEESAT-1                
1 35933U 09051C   26190.56195696  .00000529  00000+0  11590-3 0  9997
2 35933  98.3943  98.4270 0005799 144.7622 215.3963 14.61756321892450
ITUPSAT1                
1 35935U 09051E   26191.18906354  .00000448  00000+0  10253-3 0  9994
2 35935  98.4025  98.2308 0007739 157.5053 202.6487 14.60474362892091
XIWANG-1 (HOPE-1)       
1 36122U 09072B   26191.72760907 -.00000461  00000+0 -10922-2 0  9997
2 36122 100.4031 145.1845 0007435 174.9291 185.1899 13.16438358796101
O/OREOS (USA 219)       
1 37224U 10062C   26190.96510575  .00001388  00000+0  13649-3 0  9998
2 37224  71.9708  28.7386 0013679  15.3805 344.7778 14.93839355120041
JUGNU                   
1 37839U 11058B   26191.24549707  .00000373  00000+0  55482-4 0  9992
2 37839  19.9589 168.3368 0018418 331.7435 144.8891 14.13782641762294
SRMSAT                  
1 37841U 11058D   26191.25823061  .00000355  00000+0  48960-4 0  9997
2 37841  19.9719 279.8299 0011870  97.3618 287.0554 14.11580397761080
STRAND-1                
1 39090U 13009E   26191.44882477  .00000176  00000+0  73431-4 0  9992
2 39090  98.3931  11.1117 0009149 154.2343 205.9301 14.37177134700402
ZACUBE-1 (TSHEPISOSAT)  
1 39417U 13066B   26191.46915967  .00001650  00000+0  13060-3 0  9990
2 39417  97.8014 153.9218 0043741 170.3489 189.8585 15.01316108684227
GOMX-1                  
1 39430U 13066Q   26191.60927013  .00001009  00000+0  15749-3 0  9990
2 39430  97.6478  30.5941 0128735   2.9471 357.2465 14.69535778673354
CUBEBUG-2 (LO-74)       
1 39440U 13066AA  26191.30584118  .00001961  00000+0  18439-3 0  9999
2 39440  97.8906 140.3858 0056121 311.9936  47.6511 14.93948233680449
FUNCUBE-1 (AO-73)       
1 39444U 13066AE  26190.85804882  .00005139  00000+0  31713-3 0  9996
2 39444  97.8287 162.7825 0037818 124.9796 235.4993 15.09776510683084
UWE-3                   
1 39446U 13066AG  26191.34114674  .00002018  00000+0  17603-3 0  9991
2 39446  97.8693 147.5751 0047541 241.4844 118.1586 14.97180749681047
UNISAT-6                
1 40012U 14033C   26191.39549180  .00001239  00000+0  13755-3 0  9994
2 40012  97.7899 343.7035 0044568 353.7824   6.2834 14.88355319649618
DUCHIFAT-1              
1 40021U 14033M   26191.13669082  .00116517  00000+0  96018-3 0  9999
2 40021  98.0434 253.6137 0001846 252.3958 107.7101 15.70000067659347
QB50P1                  
1 40025U 14033R   26191.28050615  .00005444  00000+0  26647-3 0  9992
2 40025  98.0969 204.0508 0010055 139.1601 221.0386 15.18618170656530
LILACSAT-2              
1 40908U 15049K   26191.80818683  .00012818  00000+0  21250-3 0  9993
2 40908  97.4633 229.5558 0008089 154.4435 205.7219 15.52251201599410
FOX-1A (AO-85)          
1 40967U 15058D   26191.49255033  .00001725  00000+0  16251-3 0  9997
2 40967  64.7732 206.5515 0132010  47.5828 313.6362 14.91070925117047
CAS-2T & KS-1Q          
1 41847U 16066G   26191.16489299  .00000785  00000+0  11782-3 0  9991
2 41847  98.3813 266.6381 0342489  59.9893 303.4819 14.44763463508118
RADFXSAT (FOX-1B)       
1 43017U 17073E   26191.42349500  .00004588  00000+0  20168-3 0  9993
2 43017  97.4686  58.1651 0148014 248.1091 110.4347 15.13024016468906
DIWATA-2B               
1 43678U 18084H   26191.84322617  .00001669  00000+0  13728-3 0  9996
2 43678  98.1221  29.0871 0013029  97.7176 262.5527 15.00553552419769
ES'HAIL 2               
1 43700U 18090A   26191.86086316  .00000000  00000+0  00000+0 0  9997
2 43700   0.0243  33.7139 0002189 126.4913 104.2859  1.00269039 27915
FOX-1CLIFF (AO-95)      
1 43770U 18099N   26191.14495820  .00007917  00000+0  29949-3 0  9999
2 43770  97.4377 251.3120 0006982 261.2710  98.7738 15.27204994416723
ITASAT                  
1 43786U 18099AE  26191.14073297  .00004555  00000+0  21845-3 0  9998
2 43786  97.4020 242.1964 0010730 270.9097  89.0908 15.19343715416391
JY1SAT (JO-97)          
1 43803U 18099AX  26191.12210713  .00013549  00000+0  40848-3 0  9999
2 43803  97.4121 254.0449 0006406 173.8802 186.2520 15.34409607417147
UWE-4                   
1 43880U 18111E   26190.27481266  .00027640  00000+0  53768-3 0  9999
2 43880  97.5841 119.7053 0005270 218.3666 141.7210 15.47549208414191
TIANYAN 01              
1 44881U 19093C   26191.80578844  .00000209  00000+0  29601-4 0  9992
2 44881  97.7521 263.4612 0013959  15.4844 344.6796 14.86554848354920
RS-44 & BREEZE-KM R/B   
1 44909U 19096E   26191.30306078  .00000009  00000+0 -16998-4 0  9993
2 44909  82.5238 324.3444 0218581  90.3753 272.2396 12.79748953305309
SALSAT                  
1 46495U 20068K   26191.42889773  .00005381  00000+0  18731-3 0  9990
2 46495  97.8857 195.9138 0008699 210.5134 149.5600 15.30129687318917
XW-3 (CAS-9)            
1 50466U 21131B   26191.86520883  .00000211  00000+0  78894-4 0  9991
2 50466  98.4980 284.1276 0004843  41.7388 318.4169 14.41379298238521
GREENCUBE (IO-117)      
1 53109U 22080E   26191.21848870 -.00000003  00000+0  00000+0 0  9999
2 53109  70.1422 290.2367 0009008 284.7282  75.2379  6.42583278 93544
UMKA 1 (RS40S)          
1 57172U 23091G   26191.84417458  .00003836  00000+0  17534-3 0  9999
2 57172  97.5043 250.4523 0013464  43.8429 316.3872 15.21090340167606
CUBESX-HSE 3 (RS42S)    
1 57178U 23091N   26191.82582052  .00008164  00000+0  26795-3 0  9994
2 57178  97.5085 257.7192 0010139  17.6413 342.5178 15.31814500168040
MONITOR-3 (RS58S)       
1 57180U 23091Q   26191.83788884  .00006260  00000+0  22932-3 0  9993
2 57180  97.5076 255.4629 0011479  24.8166 335.3623 15.28318212167900
MONITOR-4 (RS57S)       
1 57182U 23091S   26191.81563049  .00006120  00000+0  22368-3 0  9995
2 57182  97.5070 255.4129 0011499  25.2400 334.9399 15.28403837167902
MONITOR-2 (RS39S)       
1 57184U 23091U   26191.82965010  .00002977  00000+0  14480-3 0  9994
2 57184  97.5062 249.9609 0011823  38.3023 321.9049 15.19129254167549
SVYATOBOR 1 (RS60S)     
1 57187U 23091X   26191.84958461  .00005597  00000+0  21373-3 0  9991
2 57187  97.5082 255.8017 0009187  19.8533 340.3061 15.27016906167922
VIZARD-METEO (RS38S)    
1 57189U 23091Z   26191.78954493  .00011541  00000+0  32313-3 0  9999
2 57189  97.5086 261.7582 0006058 357.6848   2.4367 15.36784473168317
POLYTECH-UNIVERSE 3 (R*)
1 57191U 23091AB  26191.78778243  .00003358  00000+0  16167-3 0  9995
2 57191  97.5039 249.4234 0016460  52.1167 308.1553 15.19340931167538
UTMN 2 (RS27S)          
1 57203U 23091AP  26191.83064557  .00007902  00000+0  25312-3 0  9992
2 57203  97.5081 259.3867 0007197   6.4517 353.6816 15.32633836168160
KUZGTU 1 (RS47S)        
1 57217U 23091AV  26191.83823294  .00007100  00000+0  24375-3 0  9996
2 57217  97.5057 256.5656 0010544  21.6805 338.4880 15.30406457167999
SONATE-2                
1 59112U 24043Q   26190.40279728  .00036930  00000+0  44852-3 0  9994
2 59112  97.5552 342.1927 0006780 123.5255 236.6650 15.60482785131352
MESAT1                  
1 60209U 24125G   26191.51548683  .00054117  00000+0  52771-3 0  9992
2 60209  97.2265  49.5713 0010995 127.0429 233.1839 15.65989421113215
OOV-CUBE (TUBSAT-30)    
1 60240U 24128F   26190.61158508  .00001327  00000+0  11249-3 0  9993
2 60240  61.9941 147.3745 0041807 138.6970 221.7297 15.02859618109486
COLIBRI-S (RS67S)       
1 61746U 24199M   26191.78217657  .00015831  00000+0  29657-3 0  9990
2 61746  97.2969  65.8636 0008419 177.7870 182.3419 15.48722513141069
HORS 3 (RS81S)          
1 61753U 24199U   26191.75855131  .00028703  00000+0  40280-3 0  9997
2 61753  97.2948  68.0932 0006588 169.6495 190.4897 15.56677587141223
HORS 4 (RS82S)          
1 61754U 24199V   26191.77160594  .00044640  00000+0  50975-3 0  9992
2 61754  97.2892  69.4706 0006535 160.9736 199.1768 15.62053653141323
SIT-2086                
1 61764U 24199AF  26191.76546499  .00028972  00000+0  43554-3 0  9999
2 61764  97.2907  68.4947 0007714 158.1486 202.0098 15.54789831138093
HYPERVIEW 1G (RS66S)    
1 61772U 24199AP  26191.75740396  .00170622  00000+0  75966-3 0  9991
2 61772  97.2811  72.7919 0008133 156.1713 203.9935 15.83806028138393
ALTAIR (RS65S)          
1 61779U 24199AW  26191.74113693  .00006075  00000+0  16734-3 0  9999
2 61779  97.3007  60.9402 0011554 213.4514 146.6002 15.37448340140738
ASRTU-1 (AO-123)        
1 61781U 24199AY  26191.75045221  .00005144  00000+0  14868-3 0  9996
2 61781  97.2977  60.2107 0012541 217.6050 142.4318 15.36012386137544
SAMSAT-IONOSPHERE (RS7*)
1 61784U 24199BB  26191.74899240  .00039352  00000+0  48963-3 0  9997
2 61784  97.2912  68.2228 0008707 174.6672 185.4679 15.59813743141238
RTU MIREA 1 (RS51S)     
1 61785U 24199BC  26191.78106042  .00048308  00000+0  51318-3 0  9992
2 61785  97.2902  69.2186 0008835 169.3082 190.8366 15.63875019138159
TEVEL2-4                
1 63213U 25052D   26191.19356909  .00014962  00000+0  43632-3 0  9992
2 63213  97.3878  87.6327 0003948  61.8463 298.3179 15.35449106 73641
TEVEL2-5                
1 63214U 25052E   26189.65245370  .00014062  00000+0  41324-3 0  9997
2 63214  97.3873  86.0291 0004130  66.2017 293.9660 15.35218873 73403
TEVEL2-6                
1 63215U 25052F   26190.77333909  .00013669  00000+0  40184-3 0  9994
2 63215  97.3877  87.1376 0003968  66.9512 293.2149 15.35215103 73575
TEVEL2-1                
1 63217U 25052H   26191.13644781  .00013953  00000+0  41737-3 0  9991
2 63217  97.3849  87.0975 0004544  70.7123 289.4612 15.34661443 73610
TEVEL2-3                
1 63218U 25052J   26191.13021186  .00014288  00000+0  42647-3 0  9993
2 63218  97.3855  87.1167 0004351  70.9758 289.1956 15.34723182 73611
TEVEL2-2                
1 63219U 25052K   26189.50651823  .00013021  00000+0  39012-3 0  9995
2 63219  97.3852  85.4689 0004704  73.9445 286.2316 15.34625790 73363
OTP-2                   
1 63235U 25052AB  26191.00871909  .00004897  00000+0  20317-3 0  9999
2 63235  97.3845  83.0996 0008285  85.2441 274.9742 15.24294167 73342
